NORAD_CAT_ID,OBJECT_NAME,OBJECT_TYPE,EPOCH,MEAN_MOTION,ECCENTRICITY,INCLINATION,RA_OF_ASC_NODE,ARG_OF_PERICENTER,MEAN_ANOMALY,BSTAR,MEAN_MOTION_DOT,MEAN_MOTION_DDOT,TLE_LINE0,TLE_LINE1,TLE_LINE2,SEMIMAJOR_AXIS,PERIOD,APOGEE,PERIGEE,DECAYED
50829.0,STARLINK-3294,PAYLOAD,2024-01-12 12:02:56,15.08835311,0.0001703,53.2195,102.9432,80.2368,279.8816,5.7472e-05,6.27e-06,0.0,0 STARLINK-3294,1 50829U 22001AC  24012.50204028  .00000627  00000-0  57472-4 0  9993,2 50829  53.2195 102.9432 0001703  80.2368 279.8816 15.08835311112831,6917.895,95.438,540.938,538.582,0.0
50829.0,STARLINK-3294,PAYLOAD,2024-01-12 13:38:19,15.08838413,0.0001616,53.2192,102.6465,74.3203,285.7967,5.8856e-05,6.49e-06,0.0,0 STARLINK-3294,1 50829U 22001AC  24012.56827870  .00000649  00000-0  58856-4 0  9996,2 50829  53.2192 102.6465 0001616  74.3203 285.7967 15.08838413111575,6917.885,95.438,540.868,538.632,0.0
50829.0,STARLINK-3294,PAYLOAD,2024-01-12 15:13:41,15.08844039,0.0001424,53.2187,102.3464,88.5043,271.6112,0.00010413,1.37e-05,0.0,0 STARLINK-3294,1 50829U 22001AC  24012.63451291  .00001370  00000-0  10413-3 0  9992,2 50829  53.2187 102.3464 0001424  88.5043 271.6112 15.08844039112850,6917.868,95.437,540.718,538.748,0.0
50829.0,STARLINK-3294,PAYLOAD,2024-01-13 05:32:10,15.08836859,0.0001336,53.2182,99.6668,108.8011,251.3126,-0.00016201,-2.865e-05,0.0,0 STARLINK-3294,1 50829U 22001AC  24013.23067719 -.00002865  00000-0 -16201-3 0  9990,2 50829  53.2182  99.6668 0001336 108.8011 251.3126 15.08836859112943,6917.89,95.438,540.679,538.831,0.0
50829.0,STARLINK-3294,PAYLOAD,2024-01-13 11:53:42,15.08849094,0.0001777,53.2196,98.4836,94.571,265.5485,-3.0794e-05,-7.78e-06,0.0,0 STARLINK-3294,1 50829U 22001AC  24013.49563454 -.00000778  00000-0 -30794-4 0  9990,2 50829  53.2196  98.4836 0001777  94.5710 265.5485 15.08849094112982,6917.853,95.437,540.947,538.488,0.0
50829.0,STARLINK-3294,PAYLOAD,2024-01-14 10:09:06,15.08844038,0.0001674,53.2191,94.3202,92.4554,267.663,0.00016205,2.292e-05,0.0,0 STARLINK-3294,1 50829U 22001AC  24014.42299767  .00002292  00000-0  16205-3 0  9998,2 50829  53.2191  94.3202 0001674  92.4554 267.6630 15.08844038113123,6917.868,95.437,540.891,538.575,0.0
50829.0,STARLINK-3294,PAYLOAD,2024-01-15 11:35:16,15.08848,0.0001627,53.2181,89.562,101.3151,258.8024,0.00012334,1.676e-05,0.0,0 STARLINK-3294,1 50829U 22001AC  24015.48283400  .00001676  00000-0  12334-3 0  9996,2 50829  53.2181  89.5620 0001627 101.3151 258.8024 15.08848000113282,6917.856,95.437,540.846,538.595,0.0
50829.0,STARLINK-3294,PAYLOAD,2024-01-16 03:29:08,15.08835969,0.0001527,53.2172,86.5848,116.3535,243.7614,-6.9645e-05,-1.396e-05,0.0,0 STARLINK-3294,1 50829U 22001AC  24016.14523901 -.00001396  00000-0 -69645-4 0  9992,2 50829  53.2172  86.5848 0001527 116.3535 243.7614 15.08835969113381,6917.893,95.438,540.814,538.701,0.0
50829.0,STARLINK-3294,PAYLOAD,2024-01-16 11:26:04,15.08840836,0.0001697,53.2186,85.1008,120.1351,239.9809,-4.8093e-05,-1.053e-05,0.0,0 STARLINK-3294,1 50829U 22001AC  24016.47644041 -.00001053  00000-0 -48093-4 0  9991,2 50829  53.2186  85.1008 0001697 120.1351 239.9809 15.08840836112163,6917.878,95.438,540.917,538.569,0.0
50829.0,STARLINK-3294,PAYLOAD,2024-01-17 09:41:28,15.08838659,0.0001735,53.2175,80.9384,115.5871,244.53,8.9822e-05,1.142e-05,0.0,0 STARLINK-3294,1 50829U 22001AC  24017.40380194  .00001142  00000-0  89822-4 0  9993,2 50829  53.2175  80.9384 0001735 115.5871 244.5300 15.08838659113573,6917.884,95.438,540.95,538.549,0.0
50829.0,STARLINK-3294,PAYLOAD,2024-01-18 12:43:01,15.08846663,0.0001607,53.2179,75.8814,104.4404,255.6767,0.00024809,3.663e-05,0.0,0 STARLINK-3294,1 50829U 22001AC  24018.52987965  .00003663  00000-0  24809-3 0  9999,2 50829  53.2179  75.8814 0001607 104.4404 255.6767 15.08846663113748,6917.86,95.437,540.837,538.613,0.0
50829.0,STARLINK-3294,PAYLOAD,2024-01-19 03:01:30,15.08842199,0.0002018,53.217,73.2056,89.2089,270.9135,9.6709e-05,1.251e-05,0.0,0 STARLINK-3294,1 50829U 22001AC  24019.12604424  .00001251  00000-0  96709-4 0  9992,2 50829  53.2170  73.2056 0002018  89.2089 270.9135 15.08842199113834,6917.874,95.437,541.135,538.343,0.0
50829.0,STARLINK-3294,PAYLOAD,2024-01-19 10:58:25,15.08842535,0.000158,53.2172,71.7184,102.0345,258.0824,0.00010813,1.433e-05,0.0,0 STARLINK-3294,1 50829U 22001AC  24019.45724330  .00001433  00000-0  10813-3 0  9990,2 50829  53.2172  71.7184 0001580 102.0345 258.0824 15.08842535112614,6917.873,95.437,540.831,538.645,0.0
50829.0,STARLINK-3294,PAYLOAD,2024-01-20 09:13:49,15.08842566,0.0001685,53.2184,67.5562,72.2462,287.8714,7.8473e-05,9.61e-06,0.0,0 STARLINK-3294,1 50829U 22001AC  24020.38460610  .00000961  00000-0  78473-4 0  9994,2 50829  53.2184  67.5562 0001685  72.2462 287.8714 15.08842566114023,6917.873,95.437,540.903,538.572,0.0
50829.0,STARLINK-3294,PAYLOAD,2024-01-21 09:04:37,15.08838764,0.0002004,53.2188,63.0957,67.3117,292.8087,8.4113e-05,1.051e-05,0.0,0 STARLINK-3294,1 50829U 22001AC  24021.37821163  .00001051  00000-0  84113-4 0  9997,2 50829  53.2188  63.0957 0002004  67.3117 292.8087 15.08838764114174,6917.884,95.438,541.136,538.363,0.0
50829.0,STARLINK-3294,PAYLOAD,2024-01-22 02:33:51,15.08843264,0.0001965,53.2193,59.828,71.6549,288.4656,0.00019116,2.756e-05,0.0,0 STARLINK-3294,1 50829U 22001AC  24022.10684958  .00002756  00000-0  19116-3 0  9991,2 50829  53.2193  59.8280 0001965  71.6549 288.4656 15.08843264113010,6917.87,95.437,541.095,538.376,0.0
50829.0,STARLINK-3294,PAYLOAD,2024-01-22 08:55:24,15.08846529,0.0001967,53.219,58.637,74.3483,285.7726,0.00022403,3.28e-05,0.0,0 STARLINK-3294,1 50829U 22001AC  24022.37180800  .00003280  00000-0  22403-3 0  9993,2 50829  53.2190  58.6370 0001967  74.3483 285.7726 15.08846529113052,6917.86,95.437,541.086,538.365,0.0
50829.0,STARLINK-3294,PAYLOAD,2024-01-23 07:10:48,15.08842492,0.0001898,53.2192,54.4742,113.4277,246.6915,9.9603e-05,1.298e-05,0.0,0 STARLINK-3294,1 50829U 22001AC  24023.29916723  .00001298  00000-0  99603-4 0  9990,2 50829  53.2192  54.4742 0001898 113.4277 246.6915 15.08842492113196,6917.873,95.437,541.051,538.425,0.0
50829.0,STARLINK-3294,PAYLOAD,2024-01-23 08:46:11,15.08843194,0.0001881,53.2192,54.1769,112.8828,247.2363,0.00010967,1.458e-05,0.0,0 STARLINK-3294,1 50829U 22001AC  24023.36540691  .00001458  00000-0  10967-3 0  9998,2 50829  53.2192  54.1769 0001881 112.8828 247.2363 15.08843194114475,6917.871,95.437,541.037,538.434,0.0
50829.0,STARLINK-3294,PAYLOAD,2024-01-24 08:36:58,15.08840944,0.000191,53.2193,49.7181,102.9972,257.1234,5.5423e-05,5.94e-06,0.0,0 STARLINK-3294,1 50829U 22001AC  24024.35900986  .00000594  00000-0  55423-4 0  9992,2 50829  53.2193  49.7181 0001910 102.9972 257.1234 15.08840944114621,6917.878,95.437,541.064,538.421,0.0
50829.0,STARLINK-3294,PAYLOAD,2024-01-25 06:52:22,15.08840384,0.0001811,53.2187,45.5565,118.0531,242.0645,-1.8405e-05,-5.81e-06,0.0,0 STARLINK-3294,1 50829U 22001AC  24025.28637104 -.00000581  00000-0 -18405-4 0  9991,2 50829  53.2187  45.5565 0001811 118.0531 242.0645 15.08840384113494,6917.879,95.438,540.997,538.491,0.0
50829.0,STARLINK-3294,PAYLOAD,2024-01-26 08:18:32,15.08844224,0.0001498,53.2191,40.7974,100.0485,260.0676,0.00012508,1.703e-05,0.0,0 STARLINK-3294,1 50829U 22001AC  24026.34621313  .00001703  00000-0  12508-3 0  9996,2 50829  53.2191  40.7974 0001498 100.0485 260.0676 15.08844224114920,6917.867,95.437,540.769,538.696,0.0
50829.0,STARLINK-3294,PAYLOAD,2024-01-27 09:44:42,15.08850377,0.0001535,53.2189,36.0358,106.556,253.5601,0.00019915,2.884e-05,0.0,0 STARLINK-3294,1 50829U 22001AC  24027.40604793  .00002884  00000-0  19915-3 0  9997,2 50829  53.2189  36.0358 0001535 106.5560 253.5601 15.08850377115087,6917.849,95.437,540.776,538.652,0.0
50829.0,STARLINK-3294,PAYLOAD,2024-01-28 04:49:21,15.08838689,0.0001904,53.2186,32.467,86.5788,273.5422,3.0666e-05,2e-06,0.0,0 STARLINK-3294,1 50829U 22001AC  24028.20093777  .00000200  00000-0  30666-4 0  9997,2 50829  53.2186  32.4670 0001904  86.5788 273.5422 15.08838689115209,6917.884,95.438,541.067,538.432,0.0
50829.0,STARLINK-3294,PAYLOAD,2024-01-28 06:24:44,15.08838664,0.0001774,53.2193,32.169,94.6283,265.4912,2.8701e-05,1.69e-06,0.0,0 STARLINK-3294,1 50829U 22001AC  24028.26717738  .00000169  00000-0  28701-4 0  9994,2 50829  53.2193  32.1690 0001774  94.6283 265.4912 15.08838664113947,6917.884,95.438,540.977,538.522,0.0
50829.0,STARLINK-3294,PAYLOAD,2024-01-29 09:26:16,15.08854442,0.0001567,53.2186,27.1133,100.3546,259.7623,0.00021039,3.063e-05,0.0,0 STARLINK-3294,1 50829U 22001AC  24029.39324869  .00003063  00000-0  21039-3 0  9990,2 50829  53.2186  27.1133 0001567 100.3546 259.7623 15.08854442115389,6917.836,95.437,540.785,538.617,0.0
50829.0,STARLINK-3294,PAYLOAD,2024-01-30 04:30:54,15.08842132,0.0001935,53.2188,23.5416,123.5378,236.5799,8.153e-05,1.01e-05,0.0,0 STARLINK-3294,1 50829U 22001AC  24030.18813386  .00001010  00000-0  81530-4 0  9999,2 50829  53.2188  23.5416 0001935 123.5378 236.5799 15.08842132115508,6917.874,95.437,541.077,538.4,0.0
50829.0,STARLINK-3294,PAYLOAD,2024-01-30 09:17:04,15.08842572,0.0001593,53.2189,22.6527,97.6355,262.4818,0.00011297,1.51e-05,0.0,0 STARLINK-3294,1 50829U 22001AC  24030.38685600  .00001510  00000-0  11297-3 0  9994,2 50829  53.2189  22.6527 0001593  97.6355 262.4818 15.08842572114268,6917.873,95.437,540.84,538.636,0.0
50829.0,STARLINK-3294,PAYLOAD,2024-01-31 05:57:04,15.08847825,0.00016,53.2191,18.7862,93.122,266.9955,1.2446e-05,-9e-07,0.0,0 STARLINK-3294,1 50829U 22001AC  24031.24797354 -.00000090  00000-0  12446-4 0  9991,2 50829  53.2191  18.7862 0001600  93.1220 266.9955 15.08847825115662,6917.856,95.437,540.828,538.615,0.0
50829.0,STARLINK-3294,PAYLOAD,2024-02-01 04:12:29,15.08835337,0.0001724,53.2191,14.6238,106.1446,253.9736,3.3961e-05,2.52e-06,0.0,0 STARLINK-3294,1 50829U 22001AC  24032.17534068  .00000252  00000-0  33961-4 0  9999,2 50829  53.2191  14.6238 0001724 106.1446 253.9736 15.08835337115800,6917.895,95.438,540.952,538.567,0.0
